GLOBALSTAR M023 [+]     
1 25621U 99004A   24040.41377566  .00000030  00000+0  74787-3 0  9995
2 25621  52.0102 116.9221 0010921 115.1148 326.3424 12.62447598153364
GLOBALSTAR M040 [-]     
1 25622U 99004B   24040.51990914 -.00000075  00000+0  15804-3 0  9990
2 25622  51.9912 120.0308 0000978  76.5743  27.4870 12.61965727152929
GLOBALSTAR M036 [-]     
1 25623U 99004C   24040.50171300 -.00000045  00000+0  55580-3 0  9992
2 25623  51.9963 101.5212 0011851 183.8198 283.0914 11.86560048120378
GLOBALSTAR M038 [-]     
1 25624U 99004D   24040.21930023 -.00000066  00000+0  24226-3 0  9992
2 25624  51.9981  54.0982 0002063 108.2472 331.5970 12.32492759141465
GLOBALSTAR M022 [-]     
1 25649U 99012A   24040.57721762 -.00000071  00000+0  18896-3 0  9997
2 25649  52.0016 192.7308 0001622 264.4524 173.5395 12.02477585116990
GLOBALSTAR M041 [-]     
1 25650U 99012B   24040.40156611 -.00000035  00000+0  64718-3 0  9990
2 25650  52.0026  59.6052 0002302  65.8042 294.3035 11.96657022119167
GLOBALSTAR M046 [-]     
1 25651U 99012C   24040.53940377 -.00000179  00000+0 -99565-3 0  9993
2 25651  52.0038 160.9858 0001736  14.0180 115.0232 12.09383455123939
GLOBALSTAR M037 [+]     
1 25652U 99012D   24040.51420203 -.00000065  00000+0  21554-3 0  9999
2 25652  51.9981 247.4261 0002141 143.3605 228.5339 12.62395613148925
